{
  "type": "FeatureCollection",
  "features": [
    {
      "type": "Feature",
      "geometry": {
        "type": "LineString",
        "coordinates": [
          [
            -122.08409,
            37.42206
          ],
          [
            -122.0839,
            37.4223
          ],
          [
            -122.083,
            37.42353
          ],
          [
            -122.0832,
            37.42386
          ],
          [
            -122.08388,
            37.42412
          ],
          [
            -122.08388,
            37.42412
          ]
        ]
      },
      "properties": {
        "name": "taught_mission.simplified",
        "kind": "route"
      }
    },
    {
      "type": "Feature",
      "geometry": {
        "type": "Point",
        "coordinates": [
          -122.08409,
          37.42206
        ]
      },
      "properties": {
        "seq": 0,
        "command": 22,
        "alt": 20.0
      }
    },
    {
      "type": "Feature",
      "geometry": {
        "type": "Point",
        "coordinates": [
          -122.0839,
          37.4223
        ]
      },
      "properties": {
        "seq": 1,
        "command": 16,
        "alt": 25.0
      }
    },
    {
      "type": "Feature",
      "geometry": {
        "type": "Point",
        "coordinates": [
          -122.083,
          37.42353
        ]
      },
      "properties": {
        "seq": 2,
        "command": 16,
        "alt": 25.0
      }
    },
    {
      "type": "Feature",
      "geometry": {
        "type": "Point",
        "coordinates": [
          -122.0832,
          37.42386
        ]
      },
      "properties": {
        "seq": 3,
        "command": 16,
        "alt": 25.0
      }
    },
    {
      "type": "Feature",
      "geometry": {
        "type": "Point",
        "coordinates": [
          -122.08388,
          37.42412
        ]
      },
      "properties": {
        "seq": 4,
        "command": 16,
        "alt": 25.0
      }
    },
    {
      "type": "Feature",
      "geometry": {
        "type": "Point",
        "coordinates": [
          -122.08388,
          37.42412
        ]
      },
      "properties": {
        "seq": 5,
        "command": 21,
        "alt": 0.0
      }
    }
  ],
  "properties": {
    "name": "taught_mission.simplified"
  }
}